[{"OBJECT_NAME":"OBJECT E","OBJECT_ID":"2024-092E","EPOCH":"2026-03-09T21:25:47.709120","MEAN_MOTION":15.32997986,"ECCENTRICITY":0.0008531,"INCLINATION":97.642,"RA_OF_ASC_NODE":198.2099,"ARG_OF_PERICENTER":142.2606,"MEAN_ANOMALY":217.9236,"EPHEMERIS_TYPE":0,"CLASSIFICATION_TYPE":"U","NORAD_CAT_ID":59777,"ELEMENT_SET_NO":999,"REV_AT_EPOCH":10051,"BSTAR":0.00078641119,"MEAN_MOTION_DOT":0.00025066,"MEAN_MOTION_DDOT":0},{"OBJECT_NAME":"STARLINK-35912","OBJECT_ID":"2025-283E","EPOCH":"2026-03-09T06:09:28.436832","MEAN_MOTION":15.30191279,"ECCENTRICITY":7.821e-5,"INCLINATION":53.1609,"RA_OF_ASC_NODE":26.4811,"ARG_OF_PERICENTER":92.2957,"MEAN_ANOMALY":267.8133,"EPHEMERIS_TYPE":0,"CLASSIFICATION_TYPE":"U","NORAD_CAT_ID":66882,"ELEMENT_SET_NO":999,"REV_AT_EPOCH":1577,"BSTAR":0.0011334083,"MEAN_MOTION_DOT":0.00033351,"MEAN_MOTION_DDOT":0}]
